KUIPER-00275            
1 67793U 26030AF  26066.95345171  .00034800  00000+0  10254-2 0  9996
2 67793  51.8846 227.6873 0009334  48.2193 311.9588 15.34669567  4828
KUIPER-00276            
1 67794U 26030AG  26067.16668981 -.00127073  00000+0 -42886-2 0  9991
2 67794  51.8820 227.0965 0018656  64.0309 176.9124 15.30444772  4559
KUIPER-00279            
1 67795U 26030AH  26067.14082850  .00050237  00000+0  14418-2 0  9990
2 67795  51.8795 226.6826 0006611  42.7938 317.3561 15.35347005  4856
CREW DRAGON 12          
1 67796U 26031A   26066.77087839  .00014056  00000+0  26707-3 0  9996
2 67796  51.6320  81.8427 0008117 167.9196 192.1989 15.48514260555921
STARLINK-36800          
1 67797U 26032A   26067.10533638  .00144978  00000+0  95542-3 0  9999
2 67797  97.2841 253.5091 0001573  66.1486 293.9944 15.75214833  4532
STARLINK-36798          
1 67798U 26032B   26067.08910310  .00180836  00000+0  11858-2 0  9993
2 67798  97.2847 253.5320 0001713  74.7096 285.4358 15.75227748  4536
STARLINK-36804          
1 67799U 26032C   26067.10357314  .00155928  00000+0  10266-2 0  9992
2 67799  97.2840 253.5113 0001390  78.8086 281.3335 15.75204971  4538
STARLINK-36354          
1 67800U 26032D   26067.09263115  .00076299  00000+0  50784-3 0  9991
2 67800  97.2847 253.5284 0001549  80.5590 279.5850 15.75190158  4535
STARLINK-36773          
1 67801U 26032E   26067.10039770  .00160993  00000+0  10590-2 0  9997
2 67801  97.2841 253.5157 0001796  79.5776 280.5691 15.75211896  4535
STARLINK-36739          
1 67802U 26032F   26067.16668981  .00021525  00000+0  14485-3 0  9991
2 67802  97.2849 253.6315 0001694  80.1264  39.6652 15.75183939  4534
STARLINK-36768          
1 67803U 26032G   26067.09439690  .00113243  00000+0  74985-3 0  9997
2 67803  97.2841 253.5233 0001665  73.1252 287.0196 15.75196589  4539
STARLINK-36792          
1 67804U 26032H   26067.09686506  .00196084  00000+0  12827-2 0  9998
2 67804  97.2840 253.5197 0001787  85.0054 275.1415 15.75240722  4536
