CCSDS_OMM_VERS = 2.0
CREATION_DATE  = 
ORIGINATOR     = 

OBJECT_NAME    = KUIPER-00275
OBJECT_ID      = 2026-030AF
CENTER_NAME    = EARTH
REF_FRAME      = TEME
TIME_SYSTEM    = UTC
MEAN_ELEMENT_THEORY = SGP/SGP4

EPOCH          = 2026-03-07T22:52:58.227744
MEAN_MOTION    = 15.34669567
ECCENTRICITY   = .0009334
INCLINATION    = 51.8846
RA_OF_ASC_NODE = 227.6873
ARG_OF_PERICENTER = 48.2193
MEAN_ANOMALY   = 311.9588

EPHEMERIS_TYPE = 0
CLASSIFICATION_TYPE = U
NORAD_CAT_ID   = 67793
ELEMENT_SET_NO = 999
REV_AT_EPOCH   = 482
BSTAR          = .10254E-2
MEAN_MOTION_DOT = .348E-3
MEAN_MOTION_DDOT = 0

CCSDS_OMM_VERS = 2.0
CREATION_DATE  = 
ORIGINATOR     = 

OBJECT_NAME    = KUIPER-00276
OBJECT_ID      = 2026-030AG
CENTER_NAME    = EARTH
REF_FRAME      = TEME
TIME_SYSTEM    = UTC
MEAN_ELEMENT_THEORY = SGP/SGP4

EPOCH          = 2026-03-08T04:00:01.999584
MEAN_MOTION    = 15.30444772
ECCENTRICITY   = .0018656
INCLINATION    = 51.8820
RA_OF_ASC_NODE = 227.0965
ARG_OF_PERICENTER = 64.0309
MEAN_ANOMALY   = 176.9124

EPHEMERIS_TYPE = 0
CLASSIFICATION_TYPE = U
NORAD_CAT_ID   = 67794
ELEMENT_SET_NO = 999
REV_AT_EPOCH   = 455
BSTAR          = -.42886E-2
MEAN_MOTION_DOT = -.127073E-2
MEAN_MOTION_DDOT = 0

CCSDS_OMM_VERS = 2.0
CREATION_DATE  = 
ORIGINATOR     = 

OBJECT_NAME    = KUIPER-00279
OBJECT_ID      = 2026-030AH
CENTER_NAME    = EARTH
REF_FRAME      = TEME
TIME_SYSTEM    = UTC
MEAN_ELEMENT_THEORY = SGP/SGP4

EPOCH          = 2026-03-08T03:22:47.582400
MEAN_MOTION    = 15.35347005
ECCENTRICITY   = .0006611
INCLINATION    = 51.8795
RA_OF_ASC_NODE = 226.6826
ARG_OF_PERICENTER = 42.7938
MEAN_ANOMALY   = 317.3561

EPHEMERIS_TYPE = 0
CLASSIFICATION_TYPE = U
NORAD_CAT_ID   = 67795
ELEMENT_SET_NO = 999
REV_AT_EPOCH   = 485
BSTAR          = .14418E-2
MEAN_MOTION_DOT = .50237E-3
MEAN_MOTION_DDOT = 0

CCSDS_OMM_VERS = 2.0
CREATION_DATE  = 
ORIGINATOR     = 

OBJECT_NAME    = CREW DRAGON 12
OBJECT_ID      = 2026-031A
CENTER_NAME    = EARTH
REF_FRAME      = TEME
TIME_SYSTEM    = UTC
MEAN_ELEMENT_THEORY = SGP/SGP4

EPOCH          = 2026-03-07T18:30:03.892896
MEAN_MOTION    = 15.48514260
ECCENTRICITY   = .00081173
INCLINATION    = 51.6320
RA_OF_ASC_NODE = 81.8427
ARG_OF_PERICENTER = 167.9196
MEAN_ANOMALY   = 192.1989

EPHEMERIS_TYPE = 0
CLASSIFICATION_TYPE = U
NORAD_CAT_ID   = 67796
ELEMENT_SET_NO = 999
REV_AT_EPOCH   = 55592
BSTAR          = .26707368E-3
MEAN_MOTION_DOT = .14056E-3
MEAN_MOTION_DDOT = 0

CCSDS_OMM_VERS = 2.0
CREATION_DATE  = 
ORIGINATOR     = 

OBJECT_NAME    = STARLINK-36800
OBJECT_ID      = 2026-032A
CENTER_NAME    = EARTH
REF_FRAME      = TEME
TIME_SYSTEM    = UTC
MEAN_ELEMENT_THEORY = SGP/SGP4

EPOCH          = 2026-03-08T02:31:41.063232
MEAN_MOTION    = 15.75214833
ECCENTRICITY   = .0001573
INCLINATION    = 97.2841
RA_OF_ASC_NODE = 253.5091
ARG_OF_PERICENTER = 66.1486
MEAN_ANOMALY   = 293.9944

EPHEMERIS_TYPE = 0
CLASSIFICATION_TYPE = U
NORAD_CAT_ID   = 67797
ELEMENT_SET_NO = 999
REV_AT_EPOCH   = 453
BSTAR          = .95542E-3
MEAN_MOTION_DOT = .144978E-2
MEAN_MOTION_DDOT = 0

CCSDS_OMM_VERS = 2.0
CREATION_DATE  = 
ORIGINATOR     = 

OBJECT_NAME    = STARLINK-36798
OBJECT_ID      = 2026-032B
CENTER_NAME    = EARTH
REF_FRAME      = TEME
TIME_SYSTEM    = UTC
MEAN_ELEMENT_THEORY = SGP/SGP4

EPOCH          = 2026-03-08T02:08:18.507840
MEAN_MOTION    = 15.75227748
ECCENTRICITY   = .0001713
INCLINATION    = 97.2847
RA_OF_ASC_NODE = 253.5320
ARG_OF_PERICENTER = 74.7096
MEAN_ANOMALY   = 285.4358

EPHEMERIS_TYPE = 0
CLASSIFICATION_TYPE = U
NORAD_CAT_ID   = 67798
ELEMENT_SET_NO = 999
REV_AT_EPOCH   = 453
BSTAR          = .11858E-2
MEAN_MOTION_DOT = .180836E-2
MEAN_MOTION_DDOT = 0

CCSDS_OMM_VERS = 2.0
CREATION_DATE  = 
ORIGINATOR     = 

OBJECT_NAME    = STARLINK-36804
OBJECT_ID      = 2026-032C
CENTER_NAME    = EARTH
REF_FRAME      = TEME
TIME_SYSTEM    = UTC
MEAN_ELEMENT_THEORY = SGP/SGP4

EPOCH          = 2026-03-08T02:29:08.719296
MEAN_MOTION    = 15.75204971
ECCENTRICITY   = .000139
INCLINATION    = 97.2840
RA_OF_ASC_NODE = 253.5113
ARG_OF_PERICENTER = 78.8086
MEAN_ANOMALY   = 281.3335

EPHEMERIS_TYPE = 0
CLASSIFICATION_TYPE = U
NORAD_CAT_ID   = 67799
ELEMENT_SET_NO = 999
REV_AT_EPOCH   = 453
BSTAR          = .10266E-2
MEAN_MOTION_DOT = .155928E-2
MEAN_MOTION_DDOT = 0

CCSDS_OMM_VERS = 2.0
CREATION_DATE  = 
ORIGINATOR     = 

OBJECT_NAME    = STARLINK-36354
OBJECT_ID      = 2026-032D
CENTER_NAME    = EARTH
REF_FRAME      = TEME
TIME_SYSTEM    = UTC
MEAN_ELEMENT_THEORY = SGP/SGP4

EPOCH          = 2026-03-08T02:13:23.331360
MEAN_MOTION    = 15.75190158
ECCENTRICITY   = .0001549
INCLINATION    = 97.2847
RA_OF_ASC_NODE = 253.5284
ARG_OF_PERICENTER = 80.5590
MEAN_ANOMALY   = 279.5850

EPHEMERIS_TYPE = 0
CLASSIFICATION_TYPE = U
NORAD_CAT_ID   = 67800
ELEMENT_SET_NO = 999
REV_AT_EPOCH   = 453
BSTAR          = .50784E-3
MEAN_MOTION_DOT = .76299E-3
MEAN_MOTION_DDOT = 0

CCSDS_OMM_VERS = 2.0
CREATION_DATE  = 
ORIGINATOR     = 

OBJECT_NAME    = STARLINK-36773
OBJECT_ID      = 2026-032E
CENTER_NAME    = EARTH
REF_FRAME      = TEME
TIME_SYSTEM    = UTC
MEAN_ELEMENT_THEORY = SGP/SGP4

EPOCH          = 2026-03-08T02:24:34.361280
MEAN_MOTION    = 15.75211896
ECCENTRICITY   = .0001796
INCLINATION    = 97.2841
RA_OF_ASC_NODE = 253.5157
ARG_OF_PERICENTER = 79.5776
MEAN_ANOMALY   = 280.5691

EPHEMERIS_TYPE = 0
CLASSIFICATION_TYPE = U
NORAD_CAT_ID   = 67801
ELEMENT_SET_NO = 999
REV_AT_EPOCH   = 453
BSTAR          = .1059E-2
MEAN_MOTION_DOT = .160993E-2
MEAN_MOTION_DDOT = 0

CCSDS_OMM_VERS = 2.0
CREATION_DATE  = 
ORIGINATOR     = 

OBJECT_NAME    = STARLINK-36739
OBJECT_ID      = 2026-032F
CENTER_NAME    = EARTH
REF_FRAME      = TEME
TIME_SYSTEM    = UTC
MEAN_ELEMENT_THEORY = SGP/SGP4

EPOCH          = 2026-03-08T04:00:01.999584
MEAN_MOTION    = 15.75183939
ECCENTRICITY   = .0001694
INCLINATION    = 97.2849
RA_OF_ASC_NODE = 253.6315
ARG_OF_PERICENTER = 80.1264
MEAN_ANOMALY   = 39.6652

EPHEMERIS_TYPE = 0
CLASSIFICATION_TYPE = U
NORAD_CAT_ID   = 67802
ELEMENT_SET_NO = 999
REV_AT_EPOCH   = 453
BSTAR          = .14485E-3
MEAN_MOTION_DOT = .21525E-3
MEAN_MOTION_DDOT = 0

CCSDS_OMM_VERS = 2.0
CREATION_DATE  = 
ORIGINATOR     = 

OBJECT_NAME    = STARLINK-36768
OBJECT_ID      = 2026-032G
CENTER_NAME    = EARTH
REF_FRAME      = TEME
TIME_SYSTEM    = UTC
MEAN_ELEMENT_THEORY = SGP/SGP4

EPOCH          = 2026-03-08T02:15:55.892160
MEAN_MOTION    = 15.75196589
ECCENTRICITY   = .0001665
INCLINATION    = 97.2841
RA_OF_ASC_NODE = 253.5233
ARG_OF_PERICENTER = 73.1252
MEAN_ANOMALY   = 287.0196

EPHEMERIS_TYPE = 0
CLASSIFICATION_TYPE = U
NORAD_CAT_ID   = 67803
ELEMENT_SET_NO = 999
REV_AT_EPOCH   = 453
BSTAR          = .74985E-3
MEAN_MOTION_DOT = .113243E-2
MEAN_MOTION_DDOT = 0

CCSDS_OMM_VERS = 2.0
CREATION_DATE  = 
ORIGINATOR     = 

OBJECT_NAME    = STARLINK-36792
OBJECT_ID      = 2026-032H
CENTER_NAME    = EARTH
REF_FRAME      = TEME
TIME_SYSTEM    = UTC
MEAN_ELEMENT_THEORY = SGP/SGP4

EPOCH          = 2026-03-08T02:19:29.141184
MEAN_MOTION    = 15.75240722
ECCENTRICITY   = .0001787
INCLINATION    = 97.2840
RA_OF_ASC_NODE = 253.5197
ARG_OF_PERICENTER = 85.0054
MEAN_ANOMALY   = 275.1415

EPHEMERIS_TYPE = 0
CLASSIFICATION_TYPE = U
NORAD_CAT_ID   = 67804
ELEMENT_SET_NO = 999
REV_AT_EPOCH   = 453
BSTAR          = .12827E-2
MEAN_MOTION_DOT = .196084E-2
MEAN_MOTION_DDOT = 0

